{
  "norad_id": 62389,
  "name": "ICEYE-X47",
  "history": [
    {
      "epoch": "2026-03-28T15:44:58.465536Z",
      "apogee_km": 529.2302020266052,
      "perigee_km": 528.2031528847674,
      "latitude_deg": -1.952246143872204e-06,
      "longitude_deg": 4.553543816152938,
      "height_km": 528.7434702623397,
      "semi_major_axis_km": 6906.853677455686,
      "eccentricity": 7.435e-05,
      "inclination_deg": 44.9961,
      "raan_deg": 66.8707,
      "arg_perigee_deg": 266.8949,
      "mean_anomaly_deg": 93.1843,
      "mean_motion_rev_day": 15.1245471
    }
  ]
}